#aV2020  7 27  0  0  0.00000000     288 DD+AD WGS84 FIT  NGA
## 2116  86400.00000000   300.00000000 59057 0.0000000000000
+   31     1  2  3  4  5  6  7  8  9 10 11 12 13 15 16 17 18
+         19 20 21 22 23 24 25 26 27 28 29 30 31 32  0  0  0
+          0  0  0  0  0  0  0  0  0  0  0  0  0  0  0  0  0
+          0  0  0  0  0  0  0  0  0  0  0  0  0  0  0  0  0
+          0  0  0  0  0  0  0  0  0  0  0  0  0  0  0  0  0
++         2  2  2  2  2  2  2  2  2  2  2  2  2  2  2  2  2
++         2  2  2  2  2  2  2  2  2  2  2  2  2  2  0  0  0
++         0  0  0  0  0  0  0  0  0  0  0  0  0  0  0  0  0
++         0  0  0  0  0  0  0  0  0  0  0  0  0  0  0  0  0
++         0  0  0  0  0  0  0  0  0  0  0  0  0  0  0  0  0
%c cc cc ccc ccc cccc cccc cccc cccc ccccc ccccc ccccc ccccc
%c cc cc ccc ccc cccc cccc cccc cccc ccccc ccccc ccccc ccccc
%f  0.0000000  0.000000000  0.00000000000  0.000000000000000
%f  0.0000000  0.000000000  0.00000000000  0.000000000000000
%i    0    0    0    0      0      0      0      0         0
%i    0    0    0    0      0      0      0      0         0
/*      NGA, ST. LOUIS,MO.                                  
/*   EPHEMERIS COMPUTED FROM 2 DAYS OF DATA                 
/*   EPOCHA v5 SMOOTHER                                     
/*   G1762 IERS2010 SATAF SATAPC                            
*  2020  7 27  9 45  0.00000000
P  1  10435.924815 -19611.185903 -14534.610638     29.285126                    
V  1  15739.884098  -9210.161223  24438.325236      0.031942                    
P  2 -21790.913195  14117.722052  -4840.373566   -493.379827                    
V  2   3407.687224  -6734.603227 -30958.622152     -0.055958                    
P  3    540.416587 -15869.210884 -21380.424807   -252.181889                    
V  3  24897.384750  10305.019337  -6941.202700     -0.113630                    
P  4    784.400667 -26207.995561  -4111.970335   -117.422675                    
V  4   3238.887753   4998.519729 -31185.550107     -0.045341                    
P  5 -20087.220259   4743.410253  16679.805304    -17.521488                    
V  5 -19191.249033  -9651.474208 -19997.167569     -0.008118                    
P  6 -21115.245262   2343.096578 -15914.943241   -308.382220                    
V  6  15380.551829 -13248.787535 -22246.203205     -0.047481                    
P  7  -7366.742886 -13776.694438  21769.323807   -336.631898                    
V  7  22123.302608 -15406.052104  -2784.439982     -0.085964                    
P  8   7362.123439 -20850.002012  14532.190075    -42.387958                    
V  8   4428.598900  18103.245102  23996.451708     -0.013452                    
P  9  -8180.742554 -24245.150543   7041.325568   -260.531751                    
V  9   1752.128519  -9322.258174 -29864.503015     -0.062975                    
P 10  23913.337072  11734.071924   1829.035495   -411.122282                    
V 10  -2979.574563   1346.190860  31610.355475     -0.105075                    
P 11  11339.160590 -24216.544088   -896.137941   -209.602970                    
V 11   3843.010570   1281.584357  30422.035342      0.106454                    
P 12  -2047.251416  15468.719415 -21748.154064     88.413557                    
V 12 -24082.292437 -12183.448309  -6322.021124     -0.049042                    
P 13 -13020.911420  13556.420906  18604.026491     30.380879                    
V 13  -1076.360460 -23908.446062  16661.931260      0.033700                    
P 15  -5330.018095  21952.403477  13341.685339   -214.729642                    
V 15  -7109.034877 -16554.198600  24201.109233      0.025901                    
P 16  18315.101854  -4342.448365  18701.445392   -187.951921                    
V 16  20571.385389  12401.545597 -16638.707721     -0.048246                    
P 17 -13427.511856 -11915.749176 -19169.589048    302.108757                    
V 17   -292.844939 -25198.727823  15487.070532      0.056927                    
P 18   6939.126269  13556.614959  21746.104881    256.188256                    
V 18 -22750.658769  15684.952352  -2549.974960      0.089357                    
P 19 -14784.017184  -3532.309989 -22085.557969   -126.516947                    
V 19     -7.510647 -27256.944373   4376.820692      0.050659                    
P 20  17851.423298  14953.709625  12904.660576    527.198275                    
V 20 -16612.501363  -1841.488329  24729.261894     -0.000867                    
P 21  21017.976644  -2339.445309  16659.220404     28.601407                    
V 21 -13893.773024  14357.786092  20774.899142      0.044967                    
P 22   8783.299234 -13459.559067 -20926.818873   -769.024524                    
V 22  25559.685072   9260.696783   4872.021427      0.029024                    
P 23  18667.677340  15608.883735  10618.711467     18.910095                    
V 23 -13451.540856  -2832.678501  27731.954201      0.145515                    
P 24 -11253.078458  20837.385368 -11841.053721    -16.245908                    
V 24 -13505.654139   7123.017283  26178.386483     -0.005781                    
P 25   9814.191275  17625.893321 -17646.186175     28.053309                    
V 25 -20557.749487  -7472.210777 -18901.105166      0.044787                    
P 26  25131.970310   3585.048654   8159.888359    250.702135                    
V 26   8590.447197   6469.114453 -28955.376066      0.067435                    
P 27  12713.414215 -10620.357720  20532.532592   -356.203272                    
V 27   3974.919485  26162.691084  11316.995488     -0.094779                    
P 28 -22948.041333 -13204.613374    704.964662    695.589607                    
V 28   1344.694022  -2033.122803  32197.887046     -0.036841                    
P 29   3422.765959  26082.471888   3467.002761   -159.431651                    
V 29  -1853.402867   4535.154063 -31918.500887     -0.083731                    
P 30 -16788.387163  -6053.697005  19782.675752   -270.312246                    
V 30  19900.090775 -15238.915564  12037.717446     -0.075816                    
P 31  22384.881345  -3335.321935 -14303.369341    -58.276759                    
V 31 -13605.651505  11813.557927 -23671.612306     -0.024647                    
P 32  14967.695933  10304.804673 -19335.636152    323.553828                    
V 32   1687.630486  24676.453632  14245.765900      0.059115                    
EOF
